EPOCH,NORAD_CAT_ID,MEAN_MOTION,ECCENTRICITY,INCLINATION,RA_OF_ASC_NODE,ARG_OF_PERICENTER,MEAN_ANOMALY,MEAN_MOTION_DOT,BSTAR,TLE_LINE1,TLE_LINE2
2022-03-13 20:00:01.000224,50803,15.49025278,0.00017300,53.2149,234.3174,38.9041,145.0437,0.00069754,0.00126360000000,1 50803U 22001A   22072.83334491  .00069754  00000-0  12636-2 0  9990,2 50803  53.2149 234.3174 0001730  38.9041 145.0437 15.49025278 11663
2022-03-13 22:00:01.999584,50803,15.49038629,0.00017300,53.2148,233.9196,36.8524,252.1325,0.00060398,0.00109600000000,1 50803U 22001A   22072.91668981  .00060398  00000-0  10960-2 0  9996,2 50803  53.2148 233.9196 0001730  36.8524 252.1325 15.49038629  3698
2022-03-14 04:00:00.999936,50803,15.49107990,0.00016380,53.2150,232.7247,40.3133,203.5764,0.00025365,0.00046592000000,1 50803U 22001A   22073.16667824  .00025365  00000-0  46592-3 0  9995,2 50803  53.2150 232.7247 0001638  40.3133 203.5764 15.49107990 11715
2022-03-14 12:00:00.999648,50803,15.49211793,0.00016530,53.2154,231.1331,41.6740,262.2465,-0.00047561,-0.00085521000000,1 50803U 22001A   22073.50001157 -.00047561  00000-0 -85521-3 0  9993,2 50803  53.2154 231.1331 0001653  41.6740 262.2465 15.49211793 11763
2022-03-14 14:00:01.999872,50803,15.49237431,0.00017550,53.2153,230.7358,38.1953,10.8058,-0.00129554,-0.00236600000000,1 50803U 22001A   22073.58335648 -.00129554  00000-0 -23660-2 0  9994,2 50803  53.2153 230.7358 0001755  38.1953  10.8058 15.49237431  3679
2022-03-14 20:00:01.000224,50803,15.49122873,0.00018580,53.2155,229.5438,36.8434,327.1218,-0.00142556,-0.00261910000000,1 50803U 22001A   22073.83334491 -.00142556  00000-0 -26191-2 0  9996,2 50803  53.2155 229.5438 0001858  36.8434 327.1218 15.49122873  3652
2022-03-14 20:00:01.000224,50803,15.49122873,0.00018580,53.2155,229.5438,36.8434,327.1218,-0.00142556,-0.00261910000000,1 50803U 22001A   22073.83334491 -.00142556  00000-0 -26191-2 0  9996,2 50803  53.2155 229.5438 0001858  36.8434 327.1218 15.49122873 11820
2022-03-15 02:00:01.000224,50803,15.49090848,0.00017800,53.2154,228.3491,33.0193,285.9045,-0.00258245,-0.00482690000000,1 50803U 22001A   22074.08334491 -.00258245  00000-0 -48269-2 0  9997,2 50803  53.2154 228.3491 0001780  33.0193 285.9045 15.49090848  3668
2022-03-15 02:00:01.000224,50803,15.49090848,0.00017800,53.2154,228.3491,33.0193,285.9045,-0.00258245,-0.00482690000000,1 50803U 22001A   22074.08334491 -.00258245  00000-0 -48269-2 0  9997,2 50803  53.2154 228.3491 0001780  33.0193 285.9045 15.49090848 11858
2022-03-15 20:00:01.000224,50803,15.48640466,0.00020980,53.2158,224.7715,37.4706,145.7715,0.00226226,0.00405290000000,1 50803U 22001A   22074.83334491  .00226226  00000-0  40529-2 0  9993,2 50803  53.2158 224.7715 0002098  37.4706 145.7715 15.48640466 11978
2022-03-15 22:00:00.999936,50803,15.48677211,0.00020680,53.2154,224.3737,35.3147,252.7888,0.00219603,0.00393280000000,1 50803U 22001A   22074.91667824  .00219603  00000-0  39328-2 0  9997,2 50803  53.2154 224.3737 0002068  35.3147 252.7888 15.48677211  3673
2022-03-16 12:00:00.999648,50803,15.48900397,0.00018160,53.2158,221.5892,35.0739,267.3209,0.00021721,0.00040323000000,1 50803U 22001A   22075.50001157  .00021721  00000-0  40323-3 0  9994,2 50803  53.2158 221.5892 0001816  35.0739 267.3209 15.48900397 12079
2022-03-16 14:00:01.000224,50803,15.48918786,0.00019220,53.2156,221.1922,33.2775,14.0458,-0.00012505,-0.00022017000000,1 50803U 22001A   22075.58334491 -.00012505  00000-0 -22017-3 0  9994,2 50803  53.2156 221.1922 0001922  33.2775  14.0458 15.48918786  3697
2022-03-16 20:00:01.000224,50803,15.48888289,0.00021050,53.2154,220.0003,31.4961,330.6328,0.00039066,0.00071745000000,1 50803U 22001A   22075.83334491  .00039066  00000-0  71745-3 0  9993,2 50803  53.2154 220.0003 0002105  31.4961 330.6328 15.48888289  3679
2022-03-17 14:00:01.000224,50803,15.48953691,0.00021030,53.2158,216.4203,36.0245,190.5290,0.00007711,0.00014838000000,1 50803U 22001A   22076.58334491  .00007711  00000-0  14838-3 0  9998,2 50803  53.2158 216.4203 0002103  36.0245 190.5290 15.48953691 12242
2022-03-17 22:00:00.999936,50803,15.48993514,0.00021450,53.2158,214.8300,28.8144,257.5288,-0.00076767,-0.00140120000000,1 50803U 22001A   22076.91667824 -.00076767  00000-0 -14012-2 0  9996,2 50803  53.2158 214.8300 0002145  28.8144 257.5288 15.48993514  3682
2022-03-18 12:00:00.999648,50803,15.48954775,0.00020440,53.2170,212.0464,30.1845,270.8177,-0.00006170,-0.00010428000000,1 50803U 22001A   22077.50001157 -.00006170  00000-0 -10428-3 0  9992,2 50803  53.2170 212.0464 0002044  30.1845 270.8177 15.48954775 12387
2022-03-18 14:00:01.000224,50803,15.48968471,0.00021470,53.2171,211.6504,28.6245,17.3209,-0.00038257,-0.00069139000000,1 50803U 22001A   22077.58334491 -.00038257  00000-0 -69139-3 0  9994,2 50803  53.2171 211.6504 0002147  28.6245  17.3209 15.48968471  3689
2022-03-18 22:00:00.999936,50803,15.49024363,0.00020820,53.2170,210.0637,28.4447,77.2957,-0.00256433,-0.00480290000000,1 50803U 22001A   22077.91667824 -.00256433  00000-0 -48029-2 0  9992,2 50803  53.2170 210.0637 0002082  28.4447  77.2957 15.49024363  3698
2022-03-19 02:00:01.999872,50803,15.49029717,0.00017290,53.2176,209.2691,30.4160,285.2847,-0.00515541,-0.00998450000000,1 50803U 22001A   22078.08335648 -.00515541  00000-0 -99845-2 0  9997,2 50803  53.2176 209.2691 0001729  30.4160 285.2847 15.49029717 12479
2022-03-19 14:00:01.000224,50803,15.48417755,0.00022920,53.2175,206.8883,24.4646,200.4935,-0.00716443,-0.01434700000000,1 50803U 22001A   22078.58334491 -.00716443  00000-0 -14347-1 0  9994,2 50803  53.2175 206.8883 0002292  24.4646 200.4935 15.48417755 12550
2022-03-19 20:00:01.000224,50803,15.48035038,0.00018890,53.2173,205.6979,34.8073,144.2269,-0.00714945,-0.01451000000000,1 50803U 22001A   22078.83334491 -.00714945  00000-0 -14510-1 0  9999,2 50803  53.2173 205.6979 0001889  34.8073 144.2269 15.48035038 12590
2022-03-19 22:00:01.999584,50803,15.47912760,0.00017230,53.2172,205.3004,37.6478,246.1027,-0.00724219,-0.01477700000000,1 50803U 22001A   22078.91668981 -.00724219  00000-0 -14777-1 0  9992,2 50803  53.2172 205.3004 0001723  37.6478 246.1027 15.47912760  3692
2022-03-20 14:00:01.000224,50803,15.46891719,0.00022980,53.2176,202.1288,20.6407,18.8914,-0.00722270,-0.01526700000000,1 50803U 22001A   22079.58334491 -.00722270  00000-0 -15267-1 0  9992,2 50803  53.2176 202.1288 0002298  20.6407  18.8914 15.46891719  3662
2022-03-20 20:00:01.000224,50803,15.46505861,0.00013390,53.2173,200.9410,21.0225,331.3205,-0.00714924,-0.01530700000000,1 50803U 22001A   22079.83334491 -.00714924  00000-0 -15307-1 0  9992,2 50803  53.2173 200.9410 0001339  21.0225 331.3205 15.46505861 12756
2022-03-20 22:00:01.999584,50803,15.46382417,0.00015870,53.2171,200.5444,28.1518,68.4484,-0.00722514,-0.01554800000000,1 50803U 22001A   22079.91668981 -.00722514  00000-0 -15548-1 0  9996,2 50803  53.2171 200.5444 0001587  28.1518  68.4484 15.46382417  3684
2022-03-21 14:00:01.000224,50803,15.45359483,0.00018330,53.2173,197.3801,40.1969,168.5093,-0.00718459,-0.01600900000000,1 50803U 22001A   22080.58334491 -.00718459  00000-0 -16009-1 0  9993,2 50803  53.2173 197.3801 0001833  40.1969 168.5093 15.45359483  3677
2022-03-21 20:00:01.000224,50803,15.44977593,0.00016340,53.2172,196.1950,44.6605,115.4765,-0.00718566,-0.01622400000000,1 50803U 22001A   22080.83334491 -.00718566  00000-0 -16224-1 0  9999,2 50803  53.2172 196.1950 0001634  44.6605 115.4765 15.44977593 12903
2022-03-21 22:00:00.999936,50803,15.44852427,0.00014950,53.2172,195.7993,50.5452,213.3255,-0.00723247,-0.01640900000000,1 50803U 22001A   22080.91667824 -.00723247  00000-0 -16409-1 0  9994,2 50803  53.2172 195.7993 0001495  50.5452 213.3255 15.44852427  3670
2022-03-22 14:00:01.000224,50803,15.43832334,0.00018950,53.2174,192.6425,29.9921,342.3709,-0.00722782,-0.01697800000000,1 50803U 22001A   22081.58334491 -.00722782  00000-0 -16978-1 0  9993,2 50803  53.2174 192.6425 0001895  29.9921 342.3709 15.43832334  3696
2022-03-22 20:00:01.000224,50803,15.43449519,0.00014660,53.2173,191.4597,43.6782,278.7373,-0.00720825,-0.01715200000000,1 50803U 22001A   22081.83334491 -.00720825  00000-0 -17152-1 0  9992,2 50803  53.2173 191.4597 0001466  43.6782 278.7373 15.43449519 13064
2022-03-22 22:00:01.999584,50803,15.43320934,0.00015250,53.2173,191.0653,40.2154,25.5397,-0.00719902,-0.01720300000000,1 50803U 22001A   22081.91668981 -.00719902  00000-0 -17203-1 0  9996,2 50803  53.2173 191.0653 0001525  40.2154  25.5397 15.43320934  3685
2022-03-23 14:00:01.000224,50803,15.42300443,0.00021890,53.2174,187.9158,29.5689,140.9376,-0.00719174,-0.01778500000000,1 50803U 22001A   22082.58334491 -.00719174  00000-0 -17785-1 0  9992,2 50803  53.2174 187.9158 0002189  29.5689 140.9376 15.42300443  3681
2022-03-23 20:00:01.000224,50803,15.41917954,0.00016720,53.2172,186.7356,39.0511,80.1293,-0.00718446,-0.01799800000000,1 50803U 22001A   22082.83334491 -.00718446  00000-0 -17998-1 0  9997,2 50803  53.2172 186.7356 0001672  39.0511  80.1293 15.41917954 13215
2022-03-23 22:00:00.999936,50803,15.41791884,0.00016400,53.2173,186.3419,45.9964,175.9988,-0.00721590,-0.01816000000000,1 50803U 22001A   22082.91667824 -.00721590  00000-0 -18160-1 0  9991,2 50803  53.2173 186.3419 0001640  45.9964 175.9988 15.41791884  3670
2022-03-24 14:00:01.000224,50803,15.40771802,0.00019350,53.2176,183.2000,31.7187,291.4151,-0.00721251,-0.01878000000000,1 50803U 22001A   22083.58334491 -.00721251  00000-0 -18780-1 0  9998,2 50803  53.2176 183.2000 0001935  31.7187 291.4151 15.40771802  3653
2022-03-24 22:00:00.999936,50803,15.40261631,0.00016320,53.2174,181.6296,36.4289,336.3559,-0.00720793,-0.01909000000000,1 50803U 22001A   22083.91667824 -.00720793  00000-0 -19090-1 0  9999,2 50803  53.2174 181.6296 0001632  36.4289 336.3559 15.40261631  3687
2022-03-24 22:00:00.999936,50803,15.40261631,0.00016320,53.2174,181.6296,36.4289,336.3559,-0.00720793,-0.01909000000000,1 50803U 22001A   22083.91667824 -.00720793  00000-0 -19090-1 0  9999,2 50803  53.2174 181.6296 0001632  36.4289 336.3559 15.40261631 13385
